{"type": "FeatureCollection", "features": [ {"type": "Feature", "properties": {"norad_id": 34340, "name": "COSMOS 2251 DEB", "group": "cosmos-2251-debris", "lat": 61.204608298684654, "lon": -45.55121601020936, "alt_km": 792.4422481180536, "timestamp": "2025-12-27T14:26:30.915455+00:00", "meta": {"OBJECT_NAME": "COSMOS 2251 DEB", "OBJECT_ID": "1993-036PN", "EPOCH": "2025-12-27T04:15:40.998240", "MEAN_MOTION": 13.79636696, "ECCENTRICITY": 0.02845228, "INCLINATION": 74.079, "RA_OF_ASC_NODE": 283.8723, "ARG_OF_PERICENTER": 28.3291, "MEAN_ANOMALY": 89.4114, "EPHEMERIS_TYPE": 0, "CLASSIFICATION_TYPE": "U", "NORAD_CAT_ID": 34340, "ELEMENT_SET_NO": 999, "REV_AT_EPOCH": 84467, "BSTAR": 0.0020938728, "MEAN_MOTION_DOT": 2.907e-05, "MEAN_MOTION_DDOT": 0}, "tle": {"line1": "1 34340U 93036PN  25361.17755785  .00002907  00000+0  20939-2 0  9999", "line2": "2 34340  74.0790 283.8723 0284522  28.3291  89.4114 13.79636696844676"}}, "geometry": {"type": "Point", "coordinates": [-45.55121601020936, 61.204608298684654]}}, {"type": "Feature", "properties": {"norad_id": 34343, "name": "COSMOS 2251 DEB", "group": "cosmos-2251-debris", "lat": -73.21502293554602, "lon": -47.45859922898136, "alt_km": 662.1273189977956, "timestamp": "2025-12-27T14:26:30.915465+00:00", "meta": {"OBJECT_NAME": "COSMOS 2251 DEB", "OBJECT_ID": "1993-036PR", "EPOCH": "2025-12-27T07:00:26.392896", "MEAN_MOTION": 14.69660938, "ECCENTRICITY": 0.00246468, "INCLINATION": 74.02, "RA_OF_ASC_NODE": 61.3317, "ARG_OF_PERICENTER": 331.9811, "MEAN_ANOMALY": 94.8211, "EPHEMERIS_TYPE": 0, "CLASSIFICATION_TYPE": "U", "NORAD_CAT_ID": 34343, "ELEMENT_SET_NO": 999, "REV_AT_EPOCH": 88944, "BSTAR": 0.0014486914, "MEAN_MOTION_DOT": 8.64e-05, "MEAN_MOTION_DDOT": 0}, "tle": {"line1": "1 34343U 93036PR  25361.29197214  .00008640  00000+0  14487-2 0  9993", "line2": "2 34343  74.0200  61.3317 0024646 331.9811  94.8211 14.69660938889441"}}, "geometry": {"type": "Point", "coordinates": [-47.45859922898136, -73.21502293554602]}}, {"type": "Feature", "properties": {"norad_id": 34344, "name": "COSMOS 2251 DEB", "group": "cosmos-2251-debris", "lat": 47.14075475470268, "lon": 101.85188291324863, "alt_km": 924.6259594795192, "timestamp": "2025-12-27T14:26:30.915476+00:00", "meta": {"OBJECT_NAME": "COSMOS 2251 DEB", "OBJECT_ID": "1993-036PS", "EPOCH": "2025-12-27T05:52:33.466656", "MEAN_MOTION": 14.16529276, "ECCENTRICITY": 0.01574651, "INCLINATION": 73.9777, "RA_OF_ASC_NODE": 84.4498, "ARG_OF_PERICENTER": 265.8461, "MEAN_ANOMALY": 123.4935, "EPHEMERIS_TYPE": 0, "CLASSIFICATION_TYPE": "U", "NORAD_CAT_ID": 34344, "ELEMENT_SET_NO": 999, "REV_AT_EPOCH": 86302, "BSTAR": 0.0021769175, "MEAN_MOTION_DOT": 4.871e-05, "MEAN_MOTION_DDOT": 0}, "tle": {"line1": "1 34344U 93036PS  25361.24483179  .00004871  00000+0  21769-2 0  9990", "line2": "2 34344  73.9777  84.4498 0157465 265.8461 123.4935 14.16529276863026"}}, "geometry": {"type": "Point", "coordinates": [101.85188291324863, 47.14075475470268]}}, {"type": "Feature", "properties": {"norad_id": 34346, "name": "COSMOS 2251 DEB", "group": "cosmos-2251-debris", "lat": -15.955722237272036, "lon": -78.25012850901558, "alt_km": 967.8337051752997, "timestamp": "2025-12-27T14:26:30.915486+00:00", "meta": {"OBJECT_NAME": "COSMOS 2251 DEB", "OBJECT_ID": "1993-036PU", "EPOCH": "2025-12-27T06:31:35.672160", "MEAN_MOTION": 13.99742365, "ECCENTRICITY": 0.02062762, "INCLINATION": 73.9945, "RA_OF_ASC_NODE": 287.0292, "ARG_OF_PERICENTER": 102.4559, "MEAN_ANOMALY": 21.8602, "EPHEMERIS_TYPE": 0, "CLASSIFICATION_TYPE": "U", "NORAD_CAT_ID": 34346, "ELEMENT_SET_NO": 999, "REV_AT_EPOCH": 85613, "BSTAR": 0.0011567814, "MEAN_MOTION_DOT": 2.013e-05, "MEAN_MOTION_DDOT": 0}, "tle": {"line1": "1 34346U 93036PU  25361.27194065  .00002013  00000+0  11568-2 0  9990", "line2": "2 34346  73.9945 287.0292 0206276 102.4559  21.8602 13.99742365856139"}}, "geometry": {"type": "Point", "coordinates": [-78.25012850901558, -15.955722237272036]}}, {"type": "Feature", "properties": {"norad_id": 34383, "name": "COSMOS 2251 DEB", "group": "cosmos-2251-debris", "lat": -56.06213249736551, "lon": -118.19175227540241, "alt_km": 541.6230130680833, "timestamp": "2025-12-27T14:26:30.915508+00:00", "meta": {"OBJECT_NAME": "COSMOS 2251 DEB", "OBJECT_ID": "1993-036PY", "EPOCH": "2025-12-27T04:14:39.687936", "MEAN_MOTION": 15.10426722, "ECCENTRICITY": 0.00024415, "INCLINATION": 74.0194, "RA_OF_ASC_NODE": 267.8917, "ARG_OF_PERICENTER": 37.5423, "MEAN_ANOMALY": 113.4403, "EPHEMERIS_TYPE": 0, "CLASSIFICATION_TYPE": "U", "NORAD_CAT_ID": 34383, "ELEMENT_SET_NO": 999, "REV_AT_EPOCH": 89331, "BSTAR": 0.0040554083, "MEAN_MOTION_DOT": 0.00067289, "MEAN_MOTION_DDOT": 0}, "tle": {"line1": "1 34383U 93036PY  25361.17684824  .00067289  00000+0  40554-2 0  9990", "line2": "2 34383  74.0194 267.8917 0002441  37.5423 113.4403 15.10426722893313"}}, "geometry": {"type": "Point", "coordinates": [-118.19175227540241, -56.06213249736551]}}, {"type": "Feature", "properties": {"norad_id": 34387, "name": "COSMOS 2251 DEB", "group": "cosmos-2251-debris", "lat": -39.95715431988696, "lon": 170.39716921693636, "alt_km": 730.5801797474269, "timestamp": "2025-12-27T14:26:30.915519+00:00", "meta": {"OBJECT_NAME": "COSMOS 2251 DEB", "OBJECT_ID": "1993-036QC", "EPOCH": "2025-12-26T12:10:12.207072", "MEAN_MOTION": 14.43849863, "ECCENTRICITY": 0.0038902, "INCLINATION": 74.0384, "RA_OF_ASC_NODE": 186.3056, "ARG_OF_PERICENTER": 280.7918, "MEAN_ANOMALY": 109.5099, "EPHEMERIS_TYPE": 0, "CLASSIFICATION_TYPE": "U", "NORAD_CAT_ID": 34387, "ELEMENT_SET_NO": 999, "REV_AT_EPOCH": 88380, "BSTAR": 0.00032075, "MEAN_MOTION_DOT": 1.076e-05, "MEAN_MOTION_DDOT": 0}, "tle": {"line1": "1 34387U 93036QC  25360.50708573  .00001076  00000+0  32075-3 0  9990", "line2": "2 34387  74.0384 186.3056 0038902 280.7918 109.5099 14.43849863883809"}}, "geometry": {"type": "Point", "coordinates": [170.39716921693636, -39.95715431988696]}}, {"type": "Feature", "properties": {"norad_id": 34388, "name": "COSMOS 2251 DEB", "group": "cosmos-2251-debris", "lat": -54.509753116065696, "lon": 38.89622155593998, "alt_km": 724.5354395601607, "timestamp": "2025-12-27T14:26:30.915594+00:00", "meta": {"OBJECT_NAME": "COSMOS 2251 DEB", "OBJECT_ID": "1993-036QD", "EPOCH": "2025-12-26T21:03:55.077120", "MEAN_MOTION": 14.49432634, "ECCENTRICITY": 0.0013584, "INCLINATION": 74.0378, "RA_OF_ASC_NODE": 196.5876, "ARG_OF_PERICENTER": 243.9719, "MEAN_ANOMALY": 177.4472, "EPHEMERIS_TYPE": 0, "CLASSIFICATION_TYPE": "U", "NORAD_CAT_ID": 34388, "ELEMENT_SET_NO": 999, "REV_AT_EPOCH": 88360, "BSTAR": 0.00077434, "MEAN_MOTION_DOT": 2.94e-05, "MEAN_MOTION_DDOT": 0}, "tle": {"line1": "1 34388U 93036QD  25360.87772080  .00002940  00000+0  77434-3 0  9994", "line2": "2 34388  74.0378 196.5876 0013584 243.9719 177.4472 14.49432634883602"}}, "geometry": {"type": "Point", "coordinates": [38.89622155593998, -54.509753116065696]}}, {"type": "Feature", "properties": {"norad_id": 34389, "name": "COSMOS 2251 DEB", "group": "cosmos-2251-debris", "lat": -19.74702706408189, "lon": 48.16141239349072, "alt_km": 771.8630024676213, "timestamp": "2025-12-27T14:26:30.915607+00:00", "meta": {"OBJECT_NAME": "COSMOS 2251 DEB", "OBJECT_ID": "1993-036QE", "EPOCH": "2025-12-26T17:50:07.367712", "MEAN_MOTION": 14.41563956, "ECCENTRICITY": 0.00295087, "INCLINATION": 74.017, "RA_OF_ASC_NODE": 223.8477, "ARG_OF_PERICENTER": 333.1475, "MEAN_ANOMALY": 93.5228, "EPHEMERIS_TYPE": 0, "CLASSIFICATION_TYPE": "U", "NORAD_CAT_ID": 34389, "ELEMENT_SET_NO": 999, "REV_AT_EPOCH": 88214, "BSTAR": 0.00032149365, "MEAN_MOTION_DOT": 1.024e-05, "MEAN_MOTION_DDOT": 0}, "tle": {"line1": "1 34389U 93036QE  25360.74314083  .00001024  00000+0  32149-3 0  9992", "line2": "2 34389  74.0170 223.8477 0029508 333.1475  93.5228 14.41563956882147"}}, "geometry": {"type": "Point", "coordinates": [48.16141239349072, -19.74702706408189]}}, {"type": "Feature", "properties": {"norad_id": 34396, "name": "COSMOS 2251 DEB", "group": "cosmos-2251-debris", "lat": 73.8814587111593, "lon": -167.32132143658342, "alt_km": 635.9102929454812, "timestamp": "2025-12-27T14:26:30.915618+00:00", "meta": {"OBJECT_NAME": "COSMOS 2251 DEB", "OBJECT_ID": "1993-036QM", "EPOCH": "2025-12-27T07:46:26.686272", "MEAN_MOTION": 14.7480598, "ECCENTRICITY": 0.00042118, "INCLINATION": 74.0289, "RA_OF_ASC_NODE": 95.5382, "ARG_OF_PERICENTER": 128.0985, "MEAN_ANOMALY": 289.5971, "EPHEMERIS_TYPE": 0, "CLASSIFICATION_TYPE": "U", "NORAD_CAT_ID": 34396, "ELEMENT_SET_NO": 999, "REV_AT_EPOCH": 88561, "BSTAR": 0.002191359, "MEAN_MOTION_DOT": 0.00014679, "MEAN_MOTION_DDOT": 0}, "tle": {"line1": "1 34396U 93036QM  25361.32391998  .00014679  00000+0  21914-2 0  9992", "line2": "2 34396  74.0289  95.5382 0004211 128.0985 289.5971 14.74805980885615"}}, "geometry": {"type": "Point", "coordinates": [-167.32132143658342, 73.8814587111593]}}, {"type": "Feature", "properties": {"norad_id": 34400, "name": "COSMOS 2251 DEB", "group": "cosmos-2251-debris", "lat": 25.496105329616974, "lon": 162.38216917932021, "alt_km": 381.9321866434175, "timestamp": "2025-12-27T14:26:30.915629+00:00", "meta": {"OBJECT_NAME": "COSMOS 2251 DEB", "OBJECT_ID": "1993-036QR", "EPOCH": "2025-12-27T06:05:43.188576", "MEAN_MOTION": 15.6065256, "ECCENTRICITY": 0.00035997, "INCLINATION": 73.9626, "RA_OF_ASC_NODE": 351.0455, "ARG_OF_PERICENTER": 183.9533, "MEAN_ANOMALY": 176.1657, "EPHEMERIS_TYPE": 0, "CLASSIFICATION_TYPE": "U", "NORAD_CAT_ID": 34400, "ELEMENT_SET_NO": 999, "REV_AT_EPOCH": 90200, "BSTAR": 0.0039636357, "MEAN_MOTION_DOT": 0.00342862, "MEAN_MOTION_DDOT": 0}, "tle": {"line1": "1 34400U 93036QR  25361.25397209  .00342862  00000+0  39636-2 0  9999", "line2": "2 34400  73.9626 351.0455 0003599 183.9533 176.1657 15.60652560902007"}}, "geometry": {"type": "Point", "coordinates": [162.38216917932021, 25.496105329616974]}}]}